{
    "links": {
        "self": "http://www.neowsapp.com/rest/v1/neo/3620865?api_key=iIulBulltgU6a56xZRHN4H3l9WmuAYTsLGpBGhQ2"
    },
    "id": "3620865",
    "neo_reference_id": "3620865",
    "name": "(2012 XC133)",
    "designation": "2012 XC133",
    "nasa_jpl_url": "http://ssd.jpl.nasa.gov/sbdb.cgi?sstr=3620865",
    "absolute_magnitude_h": 22.3,
    "estimated_diameter": {
        "kilometers": {
            "estimated_diameter_min": 0.0921626549,
            "estimated_diameter_max": 0.2060819612
        },
        "meters": {
            "estimated_diameter_min": 92.1626548503,
            "estimated_diameter_max": 206.0819612321
        },
        "miles": {
            "estimated_diameter_min": 0.057267201,
            "estimated_diameter_max": 0.1280533543
        },
        "feet": {
            "estimated_diameter_min": 302.370924539,
            "estimated_diameter_max": 676.1219416887
        }
    },
    "is_potentially_hazardous_asteroid": false,
    "close_approach_data": [
        {
            "close_approach_date": "2003-12-17",
            "close_approach_date_full": "2003-Dec-17 12:06",
            "epoch_date_close_approach": 1071662760000,
            "relative_velocity": {
                "kilometers_per_second": "19.5680561389",
                "kilometers_per_hour": "70445.0020999655",
                "miles_per_hour": "43771.7847770591"
            },
            "miss_distance": {
                "astronomical": "0.3240646101",
                "lunar": "126.0611333289",
                "kilometers": "48479375.413340487",
                "miles": "30123687.0279212406"
            },
            "orbiting_body": "Earth"
        },
        {
            "close_approach_date": "2004-05-09",
            "close_approach_date_full": "2004-May-09 06:15",
            "epoch_date_close_approach": 1084083300000,
            "relative_velocity": {
                "kilometers_per_second": "13.7920111757",
                "kilometers_per_hour": "49651.2402326111",
                "miles_per_hour": "30851.3497989799"
            },
            "miss_distance": {
                "astronomical": "0.4578442961",
                "lunar": "178.1014311829",
                "kilometers": "68492531.488209307",
                "miles": "42559285.5664781566"
            },
            "orbiting_body": "Earth"
        },
        {
            "close_approach_date": "2012-12-19",
            "close_approach_date_full": "2012-Dec-19 21:16",
            "epoch_date_close_approach": 1355951760000,
            "relative_velocity": {
                "kilometers_per_second": "15.2195453621",
                "kilometers_per_hour": "54790.3633035902",
                "miles_per_hour": "34044.6010205003"
            },
            "miss_distance": {
                "astronomical": "0.2682162186",
                "lunar": "104.3361090354",
                "kilometers": "40124575.002014382",
                "miles": "24932254.7822351916"
            },
            "orbiting_body": "Earth"
        },
        {
            "close_approach_date": "2013-05-03",
            "close_approach_date_full": "2013-May-03 11:11",
            "epoch_date_close_approach": 1367579460000,
            "relative_velocity": {
                "kilometers_per_second": "15.5746137123",
                "kilometers_per_hour": "56068.6093642944",
                "miles_per_hour": "34838.8534130528"
            },
            "miss_distance": {
                "astronomical": "0.4015365214",
                "lunar": "156.1977068246",
                "kilometers": "60069008.328649418",
                "miles": "37325150.9851732484"
            },
            "orbiting_body": "Earth"
        }
    ],
    "orbital_data": {
        "orbit_id": "10",
        "orbit_determination_date": "2017-04-06 08:47:37",
        "first_observation_date": "2012-12-12",
        "last_observation_date": "2013-01-06",
        "data_arc_in_days": 25,
        "observations_used": 47,
        "orbit_uncertainty": "7",
        "minimum_orbit_intersection": ".247525",
        "jupiter_tisserand_invariant": "3.950",
        "epoch_osculation": "2459000.5",
        "eccentricity": ".4061742445195405",
        "semi_major_axis": "1.723916904168024",
        "inclination": "27.70040309983634",
        "ascending_node_longitude": "253.2064005282191",
        "orbital_period": "826.7475550068797",
        "perihelion_distance": "1.023706258003112",
        "perihelion_argument": "254.6999829421217",
        "aphelion_distance": "2.424127550332936",
        "perihelion_time": "2458824.123953016807",
        "mean_anomaly": "76.80140876064762",
        "mean_motion": ".4354412635632219",
        "equinox": "J2000",
        "orbit_class": {
            "orbit_class_type": "AMO",
            "orbit_class_description": "Near-Earth asteroid orbits similar to that of 1221 Amor",
            "orbit_class_range": "1.017 AU < q (perihelion) < 1.3 AU"
        }
    },
    "is_sentry_object": false
}